{"type": "FeatureCollection", "features": [ {"type": "Feature", "properties": {"norad_id": 30071, "name": "FENGYUN 1C DEB", "group": "fengyun-1c-debris", "lat": -58.9414824903934, "lon": -94.01398947179709, "alt_km": 751.7151272759365, "timestamp": "2025-12-26T22:28:06.057804+00:00", "meta": {"OBJECT_NAME": "FENGYUN 1C DEB", "OBJECT_ID": "1999-025PY", "EPOCH": "2025-12-26T13:10:43.034880", "MEAN_MOTION": 14.52389635, "ECCENTRICITY": 0.00379864, "INCLINATION": 98.6576, "RA_OF_ASC_NODE": 100.2415, "ARG_OF_PERICENTER": 67.6445, "MEAN_ANOMALY": 309.6253, "EPHEMERIS_TYPE": 0, "CLASSIFICATION_TYPE": "U", "NORAD_CAT_ID": 30071, "ELEMENT_SET_NO": 999, "REV_AT_EPOCH": 98427, "BSTAR": 0.0022011224, "MEAN_MOTION_DOT": 9.012e-05, "MEAN_MOTION_DDOT": 0}, "tle": {"line1": "1 30071U 99025PY  25360.54910920  .00009012  00000+0  22011-2 0  9991", "line2": "2 30071  98.6576 100.2415 0037986  67.6445 309.6253 14.52389635984276"}}, "geometry": {"type": "Point", "coordinates": [-94.01398947179709, -58.9414824903934]}}, {"type": "Feature", "properties": {"norad_id": 30072, "name": "FENGYUN 1C DEB", "group": "fengyun-1c-debris", "lat": -9.766426589525098, "lon": -31.57780527089096, "alt_km": 736.8784026052126, "timestamp": "2025-12-26T22:28:06.057815+00:00", "meta": {"OBJECT_NAME": "FENGYUN 1C DEB", "OBJECT_ID": "1999-025PZ", "EPOCH": "2025-12-26T09:53:41.309088", "MEAN_MOTION": 14.38040623, "ECCENTRICITY": 0.00601482, "INCLINATION": 99.0768, "RA_OF_ASC_NODE": 149.4458, "ARG_OF_PERICENTER": 233.0599, "MEAN_ANOMALY": 126.5068, "EPHEMERIS_TYPE": 0, "CLASSIFICATION_TYPE": "U", "NORAD_CAT_ID": 30072, "ELEMENT_SET_NO": 999, "REV_AT_EPOCH": 97367, "BSTAR": 0.0035818315, "MEAN_MOTION_DOT": 0.00011041, "MEAN_MOTION_DDOT": 0}, "tle": {"line1": "1 30072U 99025PZ  25360.41228367  .00011041  00000+0  35818-2 0  9999", "line2": "2 30072  99.0768 149.4458 0060148 233.0599 126.5068 14.38040623973679"}}, "geometry": {"type": "Point", "coordinates": [-31.57780527089096, -9.766426589525098]}}, {"type": "Feature", "properties": {"norad_id": 30073, "name": "FENGYUN 1C DEB", "group": "fengyun-1c-debris", "lat": -19.639277206945312, "lon": 151.53459963891058, "alt_km": 805.6933393717854, "timestamp": "2025-12-26T22:28:06.057825+00:00", "meta": {"OBJECT_NAME": "FENGYUN 1C DEB", "OBJECT_ID": "1999-025QA", "EPOCH": "2025-12-26T10:16:19.079904", "MEAN_MOTION": 14.18744649, "ECCENTRICITY": 0.00527187, "INCLINATION": 99.4125, "RA_OF_ASC_NODE": 334.3892, "ARG_OF_PERICENTER": 241.7908, "MEAN_ANOMALY": 244.2992, "EPHEMERIS_TYPE": 0, "CLASSIFICATION_TYPE": "U", "NORAD_CAT_ID": 30073, "ELEMENT_SET_NO": 999, "REV_AT_EPOCH": 97119, "BSTAR": 0.0013722796, "MEAN_MOTION_DOT": 2.841e-05, "MEAN_MOTION_DDOT": 0}, "tle": {"line1": "1 30073U 99025QA  25360.42799861  .00002841  00000+0  13723-2 0  9992", "line2": "2 30073  99.4125 334.3892 0052718 241.7908 244.2992 14.18744649971198"}}, "geometry": {"type": "Point", "coordinates": [151.53459963891058, -19.639277206945312]}}, {"type": "Feature", "properties": {"norad_id": 30074, "name": "FENGYUN 1C DEB", "group": "fengyun-1c-debris", "lat": 16.42507129106121, "lon": 64.73108546504176, "alt_km": 856.1137916441849, "timestamp": "2025-12-26T22:28:06.057836+00:00", "meta": {"OBJECT_NAME": "FENGYUN 1C DEB", "OBJECT_ID": "1999-025QB", "EPOCH": "2025-12-21T03:01:28.048512", "MEAN_MOTION": 14.12895962, "ECCENTRICITY": 0.00969654, "INCLINATION": 99.1289, "RA_OF_ASC_NODE": 61.526, "ARG_OF_PERICENTER": 128.6907, "MEAN_ANOMALY": 232.2986, "EPHEMERIS_TYPE": 0, "CLASSIFICATION_TYPE": "U", "NORAD_CAT_ID": 30074, "ELEMENT_SET_NO": 999, "REV_AT_EPOCH": 96780, "BSTAR": 0.0010443796, "MEAN_MOTION_DOT": 1.987e-05, "MEAN_MOTION_DDOT": 0}, "tle": {"line1": "1 30074U 99025QB  25355.12601908  .00001987  00000+0  10444-2 0  9995", "line2": "2 30074  99.1289  61.5260 0096965 128.6907 232.2986 14.12895962967801"}}, "geometry": {"type": "Point", "coordinates": [64.73108546504176, 16.42507129106121]}}, {"type": "Feature", "properties": {"norad_id": 30075, "name": "FENGYUN 1C DEB", "group": "fengyun-1c-debris", "lat": 25.47809602274514, "lon": -124.09744854767368, "alt_km": 854.3089409648228, "timestamp": "2025-12-26T22:28:06.057846+00:00", "meta": {"OBJECT_NAME": "FENGYUN 1C DEB", "OBJECT_ID": "1999-025QC", "EPOCH": "2025-12-26T09:59:26.158272", "MEAN_MOTION": 13.92538152, "ECCENTRICITY": 0.0091508, "INCLINATION": 99.3598, "RA_OF_ASC_NODE": 50.8699, "ARG_OF_PERICENTER": 140.3251, "MEAN_ANOMALY": 288.4965, "EPHEMERIS_TYPE": 0, "CLASSIFICATION_TYPE": "U", "NORAD_CAT_ID": 30075, "ELEMENT_SET_NO": 999, "REV_AT_EPOCH": 96255, "BSTAR": 2.9434975e-05, "MEAN_MOTION_DOT": -6e-08, "MEAN_MOTION_DDOT": 0}, "tle": {"line1": "1 30075U 99025QC  25360.41627498 -.00000006  00000+0  29435-4 0  9990", "line2": "2 30075  99.3598  50.8699 0091508 140.3251 288.4965 13.92538152962554"}}, "geometry": {"type": "Point", "coordinates": [-124.09744854767368, 25.47809602274514]}}, {"type": "Feature", "properties": {"norad_id": 30076, "name": "FENGYUN 1C DEB", "group": "fengyun-1c-debris", "lat": 74.95252124072236, "lon": -155.49311750379815, "alt_km": 877.813518386396, "timestamp": "2025-12-26T22:28:06.057857+00:00", "meta": {"OBJECT_NAME": "FENGYUN 1C DEB", "OBJECT_ID": "1999-025QD", "EPOCH": "2025-12-26T13:50:49.625664", "MEAN_MOTION": 13.76300326, "ECCENTRICITY": 0.01757076, "INCLINATION": 99.2395, "RA_OF_ASC_NODE": 346.8959, "ARG_OF_PERICENTER": 57.5455, "MEAN_ANOMALY": 64.0759, "EPHEMERIS_TYPE": 0, "CLASSIFICATION_TYPE": "U", "NORAD_CAT_ID": 30076, "ELEMENT_SET_NO": 999, "REV_AT_EPOCH": 95084, "BSTAR": 0.00034530572, "MEAN_MOTION_DOT": 3.35e-06, "MEAN_MOTION_DDOT": 0}, "tle": {"line1": "1 30076U 99025QD  25360.57696326  .00000335  00000+0  34531-3 0  9990", "line2": "2 30076  99.2395 346.8959 0175707  57.5455  64.0759 13.76300326950845"}}, "geometry": {"type": "Point", "coordinates": [-155.49311750379815, 74.95252124072236]}}, {"type": "Feature", "properties": {"norad_id": 30077, "name": "FENGYUN 1C DEB", "group": "fengyun-1c-debris", "lat": 24.700706337307622, "lon": -159.78738293123345, "alt_km": 862.8504680437973, "timestamp": "2025-12-26T22:28:06.057867+00:00", "meta": {"OBJECT_NAME": "FENGYUN 1C DEB", "OBJECT_ID": "1999-025QE", "EPOCH": "2025-12-26T13:49:25.943808", "MEAN_MOTION": 14.07081082, "ECCENTRICITY": 0.00207367, "INCLINATION": 98.7575, "RA_OF_ASC_NODE": 15.798, "ARG_OF_PERICENTER": 223.4533, "MEAN_ANOMALY": 268.1446, "EPHEMERIS_TYPE": 0, "CLASSIFICATION_TYPE": "U", "NORAD_CAT_ID": 30077, "ELEMENT_SET_NO": 999, "REV_AT_EPOCH": 97307, "BSTAR": 0.00014295117, "MEAN_MOTION_DOT": 1.97e-06, "MEAN_MOTION_DDOT": 0}, "tle": {"line1": "1 30077U 99025QE  25360.57599472  .00000197  00000+0  14295-3 0  9996", "line2": "2 30077  98.7575  15.7980 0020736 223.4533 268.1446 14.07081082973078"}}, "geometry": {"type": "Point", "coordinates": [-159.78738293123345, 24.700706337307622]}}, {"type": "Feature", "properties": {"norad_id": 30078, "name": "FENGYUN 1C DEB", "group": "fengyun-1c-debris", "lat": 33.86598572531081, "lon": -98.16135180080542, "alt_km": 814.6142046291016, "timestamp": "2025-12-26T22:28:06.057877+00:00", "meta": {"OBJECT_NAME": "FENGYUN 1C DEB", "OBJECT_ID": "1999-025QF", "EPOCH": "2025-12-26T15:49:24.992256", "MEAN_MOTION": 14.23213549, "ECCENTRICITY": 0.00535826, "INCLINATION": 98.8314, "RA_OF_ASC_NODE": 75.572, "ARG_OF_PERICENTER": 240.1308, "MEAN_ANOMALY": 288.3265, "EPHEMERIS_TYPE": 0, "CLASSIFICATION_TYPE": "U", "NORAD_CAT_ID": 30078, "ELEMENT_SET_NO": 999, "REV_AT_EPOCH": 97311, "BSTAR": 0.0013239816, "MEAN_MOTION_DOT": 2.994e-05, "MEAN_MOTION_DDOT": 0}, "tle": {"line1": "1 30078U 99025QF  25360.65931704  .00002994  00000+0  13240-2 0  9999", "line2": "2 30078  98.8314  75.5720 0053582 240.1308 288.3265 14.23213549973119"}}, "geometry": {"type": "Point", "coordinates": [-98.16135180080542, 33.86598572531081]}}, {"type": "Feature", "properties": {"norad_id": 30079, "name": "FENGYUN 1C DEB", "group": "fengyun-1c-debris", "lat": 0.12164709424292582, "lon": -123.66563908224421, "alt_km": 881.8678816325637, "timestamp": "2025-12-26T22:28:06.057888+00:00", "meta": {"OBJECT_NAME": "FENGYUN 1C DEB", "OBJECT_ID": "1999-025QG", "EPOCH": "2025-12-26T15:22:50.649600", "MEAN_MOTION": 14.00801229, "ECCENTRICITY": 0.00851555, "INCLINATION": 99.0323, "RA_OF_ASC_NODE": 56.0231, "ARG_OF_PERICENTER": 259.8644, "MEAN_ANOMALY": 232.419, "EPHEMERIS_TYPE": 0, "CLASSIFICATION_TYPE": "U", "NORAD_CAT_ID": 30079, "ELEMENT_SET_NO": 999, "REV_AT_EPOCH": 96732, "BSTAR": 0.00015216546, "MEAN_MOTION_DOT": 1.89e-06, "MEAN_MOTION_DDOT": 0}, "tle": {"line1": "1 30079U 99025QG  25360.64086400  .00000189  00000+0  15217-3 0  9994", "line2": "2 30079  99.0323  56.0231 0085155 259.8644 232.4190 14.00801229967321"}}, "geometry": {"type": "Point", "coordinates": [-123.66563908224421, 0.12164709424292582]}}, {"type": "Feature", "properties": {"norad_id": 30080, "name": "FENGYUN 1C DEB", "group": "fengyun-1c-debris", "lat": 37.43923451104855, "lon": -25.72272976776276, "alt_km": 761.5872205638498, "timestamp": "2025-12-26T22:28:06.057898+00:00", "meta": {"OBJECT_NAME": "FENGYUN 1C DEB", "OBJECT_ID": "1999-025QH", "EPOCH": "2025-12-26T11:05:31.337664", "MEAN_MOTION": 14.10836944, "ECCENTRICITY": 0.01333896, "INCLINATION": 98.6998, "RA_OF_ASC_NODE": 340.5505, "ARG_OF_PERICENTER": 21.85, "MEAN_ANOMALY": 129.5607, "EPHEMERIS_TYPE": 0, "CLASSIFICATION_TYPE": "U", "NORAD_CAT_ID": 30080, "ELEMENT_SET_NO": 999, "REV_AT_EPOCH": 97431, "BSTAR": 0.00031237042, "MEAN_MOTION_DOT": 5.66e-06, "MEAN_MOTION_DDOT": 0}, "tle": {"line1": "1 30080U 99025QH  25360.46216826  .00000566  00000+0  31237-3 0  9992", "line2": "2 30080  98.6998 340.5505 0133389  21.8500 129.5607 14.10836944974311"}}, "geometry": {"type": "Point", "coordinates": [-25.72272976776276, 37.43923451104855]}}]}